ASIASAT 7               
1 37933U 11069A   17003.96750396 -.00000329  00000-0  00000-0 0  9993
2 37933   0.0116 323.2876 0001302 317.5034 276.7645  1.00268773 10254
LUCH 5A                 
1 37951U 11074B   17004.19769490 -.00000040  00000-0  00000+0 0  9999
2 37951   1.5840 196.1656 0004075  92.6731  53.3459  1.00269834 18587
NIGCOMSAT 1R            
1 38014U 11077A   17003.91255480  .00000149  00000-0  00000-0 0  9991
2 38014   0.0461 121.8356 0001735 136.4385 216.4748  1.00275049 18358
FENGYUN 2F              
1 38049U 12002A   17004.35088169 -.00000352  00000-0  00000+0 0  9991
2 38049   1.3825  77.3325 0001798 232.0243  32.7611  1.00259694 18288
SES-4                   
1 38087U 12007A   17003.01208009 -.00000163  00000-0  00000-0 0  9998
2 38087   0.0172   8.9400 0002565 257.5972 178.6347  1.00269983 17668
BEIDOU G5               
1 38091U 12008A   17003.87495671  .00000058  00000-0  00000+0 0  9992
2 38091   1.9471  53.0403 0004603 214.3458 210.1154  1.00277293 17878
INTELSAT 22 (IS-22)     
1 38098U 12011A   17002.51548903 -.00000053  00000-0  00000-0 0  9997
2 38098   0.0201  25.5796 0002171 264.6804  69.7167  1.00270566 17223
APSTAR 7                
1 38107U 12013A   17004.10005943 -.00000097  00000-0  00000+0 0  9996
2 38107   0.0287  33.0447 0002882 249.0504 294.3308  1.00271705 17564
YAHSAT 1B               
1 38245U 12016A   17003.58052477  .00000131  00000-0  00000-0 0  9996
2 38245   0.0179  16.4527 0002476 288.3439  55.1801  1.00271329 11010
JCSAT-13                
1 38331U 12023A   17003.36889043 -.00000351  00000-0  00000+0 0  9997
2 38331   0.0094  39.2823 0001831 257.8449  62.8534  1.00269954 16968
VINASAT-2               
1 38332U 12023B   17004.52727160 -.00000325  00000-0  00000+0 0  9999
2 38332   0.0108 340.6384 0002520 325.8527 119.4825  1.00269933 17011
NIMIQ 6                 
1 38342U 12026A   17002.96746303 -.00000169  00000-0  00000+0 0  9995
2 38342   0.0100  28.7618 0002447 249.9803  81.2298  1.00271794 16982
CHINASAT 2A (ZX 2A)     
1 38352U 12028A   17004.02649962 -.00000289  00000-0  00000+0 0  9993
2 38352   0.0481 147.2044 0005057 170.7966 253.6414  1.00271869 17031
INTELSAT 19 (IS-19)     
1 38356U 12030A   17004.24980070 -.00000052  00000-0  00000+0 0  9990
2 38356   0.0225 338.8407 0003286 315.6689  65.4547  1.00272590 16910
ECHOSTAR 17             
1 38551U 12035A   17003.01181745 -.00000070  00000-0  00000-0 0  9999
2 38551   0.0226  29.4428 0002202 249.4793  81.0529  1.00271290 16461
METEOSAT-10 (MSG-3)     
1 38552U 12035B   17003.71214424  .00000002  00000-0  00000-0 0  9992
2 38552   0.6396  39.6790 0001726 230.7995  89.5009  1.00278337 16272
SES-5                   
1 38652U 12036A   17004.03589762  .00000038  00000-0  00000+0 0  9998
2 38652   0.0414 261.8325 0002053  22.5259 197.3876  1.00273470 16469
TIANLIAN 1-03           
1 38730U 12040A   17003.68298367  .00000076  00000-0  00000-0 0  9991
2 38730   0.0857 263.2172 0002062 348.8620 107.8974  1.00268549 14104
INTELSAT 20 (IS-20)     
1 38740U 12043A   17003.52273896 -.00000020  00000-0  00000-0 0  9998
2 38740   0.0111  68.0935 0001911 118.7721 173.1311  1.00271991 16168
HYLAS 2                 
1 38741U 12043B   17003.62644156  .00000159  00000-0  00000+0 0  9992
2 38741   0.0137 331.7785 0001764 309.0796  79.1212  1.00273493 16246
INTELSAT 21 (IS-21)     
1 38749U 12045A   17002.87575541 -.00000280  00000-0  00000+0 0  9995
2 38749   0.0219  21.5407 0002131 260.4698  77.9656  1.00269835 16029
ASTRA 2F                
1 38778U 12051A   17003.63423314  .00000155  00000-0  00000+0 0  9999
2 38778   0.0710 236.4066 0003800  12.7598 110.7920  1.00273610 15683
GSAT-10                 
1 38779U 12051B   17003.48247240 -.00000161  00000-0  00000-0 0  9994
2 38779   0.0550 101.7830 0001696 176.8931  81.3039  1.00272241 15518
INTELSAT 23 (IS-23)     
1 38867U 12057A   17003.85924089 -.00000280  00000-0  00000-0 0  9994
2 38867   0.0176 294.5820 0001905 355.7708  69.6258  1.00270375 15397
BEIDOU G6               
1 38953U 12059A   17003.95416231 -.00000173  00000-0  10000-3 0  9993
2 38953   1.3208  79.7026 0006510 173.0203 278.6343  1.00273308 15444
LUCH 5B                 
1 38977U 12061A   17004.11819311 -.00000128  00000-0  00000+0 0  9992
2 38977   3.2171  75.7307 0003029 201.2584 213.1139  1.00269959 15574
YAMAL 300K              
1 38978U 12061B   17004.55754091  .00000075  00000-0  00000+0 0  9994
2 38978   0.0385 146.3576 0000816  98.3600 243.2855  1.00272791 15279
STAR ONE C3             
1 38991U 12062A   17004.05812234 -.00000245  00000-0  00000+0 0  9999
2 38991   0.0175  81.1818 0003007 199.5802 129.0096  1.00270200 15258
EUTELSAT 21B            
1 38992U 12062B   17003.65256310  .00000135  00000-0  00000-0 0  9990
2 38992   0.0627 359.0478 0002829 288.5156  72.4050  1.00274142 15252
ECHOSTAR 16             
1 39008U 12065A   17003.88274850 -.00000278  00000-0  00000+0 0  9994
2 39008   0.0179  22.7238 0002080 260.5737  76.6781  1.00270123 15202
CHINASAT 12 (ZX 12)     
1 39017U 12067A   17004.53704157 -.00000203  00000-0  00000+0 0  9995
2 39017   0.0189  35.8365 0002454 248.5160 100.8131  1.00270734 15117
EUTELSAT 70B            
1 39020U 12069A   17003.65687213 -.00000039  00000-0  00000+0 0  9993
2 39020   0.0615  14.8810 0003581 254.1156 141.4378  1.00273140 15003
YAMAL 402               
1 39022U 12070A   17004.61036139  .00000089  00000-0  10000-3 0  9998
2 39022   0.0085 348.5333 0002043 334.4779  56.0212  1.00273176 15005
SKYNET 5D               
1 39034U 12075A   17003.84920087  .00000103  00000-0  00000-0 0  9997
2 39034   0.0670   6.8704 0004002 269.1582 186.0741  1.00272602 14561
MEXSAT 3                
1 39035U 12075B   17004.03035374 -.00000022  00000-0  00000+0 0  9996
2 39035   0.0578 238.1953 0002359  14.5583 107.2193  1.00272831 14875
TDRS 11                 
1 39070U 13004A   17004.10040933  .00000099  00000-0  00000+0 0  9996
2 39070   5.6030 328.8435 0011952 294.4823  65.5430  1.00275379 14381
AMAZONAS 3              
1 39078U 13006A   17003.88132241 -.00000278  00000-0  00000+0 0  9994
2 39078   0.0577 237.3581 0004259  11.5057 111.0895  1.00269840 14365
AZERSPACE 1             
1 39079U 13006B   17004.64589528  .00000136  00000-0  00000+0 0  9996
2 39079   0.0044 319.0118 0002250 347.7966  76.1559  1.00274631 14330
EUTELSAT 117 WEST A     
1 39122U 13012A   17004.03585724 -.00000009  00000-0  00000+0 0  9999
2 39122   0.0230  41.7415 0002589 244.0847  74.1453  1.00269682 13865
ANIK G1                 
1 39127U 13014A   17004.00962883 -.00000070  00000-0  00000+0 0  9996
2 39127   0.0464 272.5784 0003014   2.7037  84.6822  1.00271814 13659
CHINASAT 11 (ZX 11)     
1 39157U 13020A   17004.02649962 -.00000287  00000-0  00000+0 0  9998
2 39157   0.0280  89.0609 0002652 192.3793 289.9466  1.00271923 13540
EUTELSAT 7B             
1 39163U 13022A   17002.69568458  .00000054  00000-0  00000+0 0  9999
2 39163   0.0437 342.3967 0004529 342.8016  34.7720  1.00273367 13383
SES-6                   
1 39172U 13026A   17003.42393816 -.00000256  00000-0  00000+0 0  9994
2 39172   0.0183   8.9594 0001985 262.5786 303.8122  1.00270749 13115
IRNSS-1A                
1 39199U 13034A   17002.88931082  .00000108  00000-0  00000+0 0  9999
2 39199  28.5568 117.9159 0021505 180.8351 179.0924  1.00275482 13026
ALPHASAT                
1 39215U 13038A   17003.72845366  .00000143  00000-0  00000+0 0  9994
2 39215   1.5523  30.6555 0001790 244.7456 115.2245  1.00276947 12662
INSAT-3D                
1 39216U 13038B   17003.48502043 -.00000151  00000-0  00000+0 0  9990
2 39216   0.0155   7.2558 0001884 276.7765  75.9460  1.00271938 12692
EUTELSAT 25B            
1 39233U 13044A   17003.64181376  .00000148  00000-0  00000-0 0  9992
2 39233   0.0440  17.4183 0001866 264.2302  78.3297  1.00271250 12034
GSAT-7                  
1 39234U 13044B   17003.50706968 -.00000072  00000-0  00000+0 0  9994
2 39234   0.0855  96.2915 0013087 178.9597  84.5981  1.00271371 12299
AMOS-4                  
1 39237U 13045A   17004.15233806  .00000011  00000-0  00000+0 0  9998
2 39237   0.0156  33.2461 0002950 270.3443 280.2210  1.00273200 12289
ASTRA 2E                
1 39285U 13056A   17003.63347979  .00000155  00000-0  00000+0 0  9991
2 39285   0.0701  45.4602 0002896 244.0086  70.4989  1.00272650 11986
SIRIUS FM-6             
1 39360U 13058A   17003.03685575 -.00000012  00000-0  00000+0 0  9991
2 39360   0.0294  39.7411 0000333  84.2577 236.0044  1.00268905 11737
RADUGA-1M 3             
1 39375U 13062A   17003.87678243 -.00000035  00000-0  00000-0 0  9994
2 39375   0.0104  82.4885 0003234 216.9654 189.8640  1.00271777 11521
SES-8                   
1 39460U 13071A   17003.44923081 -.00000264  00000-0  00000+0 0  9998
2 39460   0.0500 271.9607 0000866  28.6086  59.4214  1.00269780 11269
INMARSAT 5-F1           
1 39476U 13073A   17003.91815950  .00000033  00000-0  00000-0 0  9998
2 39476   0.0187  33.9722 0000490 337.4467 125.3925  1.00270527 10990
TKSAT-1 (TUPAC KATARI)  
1 39481U 13075A   17004.36782733 -.00000191  00000-0  00000+0 0  9993
2 39481   0.0445 200.6042 0003084  88.5312 220.2497  1.00271908 11248
EXPRESS-AM5             
1 39487U 13077A   17004.59688442 -.00000277  00000-0  00000+0 0  9993
2 39487   0.0362 219.3203 0000728 186.2354  53.7325  1.00270732 11773
GSAT-14                 
1 39498U 14001A   17003.50735672 -.00000072  00000-0  00000+0 0  9994
2 39498   0.0543 275.7917 0006399   9.9113  74.2254  1.00271385 10962
THAICOM 6               
1 39500U 14002A   17003.96232052 -.00000117  00000-0  00000-0 0  9994
2 39500   0.0714 122.9534 0001647 102.4601 303.2824  1.00272266 10840
TDRS 12                 
1 39504U 14004A   17002.76323550 -.00000262  00000-0  00000-0 0  9992
2 39504   6.1507 336.3125 0004620 310.4087  49.6806  1.00276619  9666
